[{"OBJECT_NAME":"HAWK-7A","OBJECT_ID":"2023-054P","EPOCH":"2026-03-06T22:26:56.295456","MEAN_MOTION":15.26155962,"ECCENTRICITY":0.0004565,"INCLINATION":97.2833,"RA_OF_ASC_NODE":315.8739,"ARG_OF_PERICENTER":56.8365,"MEAN_ANOMALY":303.3311,"EPHEMERIS_TYPE":0,"CLASSIFICATION_TYPE":"U","NORAD_CAT_ID":56191,"ELEMENT_SET_NO":999,"REV_AT_EPOCH":16142,"BSTAR":0.00024567,"MEAN_MOTION_DOT":6.277e-5,"MEAN_MOTION_DDOT":0},{"OBJECT_NAME":"HAWK-7B","OBJECT_ID":"2023-054R","EPOCH":"2026-03-07T03:10:04.445760","MEAN_MOTION":15.26158576,"ECCENTRICITY":0.0003815,"INCLINATION":97.2866,"RA_OF_ASC_NODE":314.2909,"ARG_OF_PERICENTER":66.5575,"MEAN_ANOMALY":293.6064,"EPHEMERIS_TYPE":0,"CLASSIFICATION_TYPE":"U","NORAD_CAT_ID":56193,"ELEMENT_SET_NO":999,"REV_AT_EPOCH":16145,"BSTAR":0.00029256,"MEAN_MOTION_DOT":7.49e-5,"MEAN_MOTION_DDOT":0},{"OBJECT_NAME":"HAWK-7C","OBJECT_ID":"2023-054Y","EPOCH":"2026-03-07T03:09:54.345600","MEAN_MOTION":15.26159342,"ECCENTRICITY":0.0003828,"INCLINATION":97.2841,"RA_OF_ASC_NODE":315.093,"ARG_OF_PERICENTER":57.5471,"MEAN_ANOMALY":302.6137,"EPHEMERIS_TYPE":0,"CLASSIFICATION_TYPE":"U","NORAD_CAT_ID":56200,"ELEMENT_SET_NO":999,"REV_AT_EPOCH":16145,"BSTAR":0.00028644,"MEAN_MOTION_DOT":7.332e-5,"MEAN_MOTION_DDOT":0}]
