HAWK-7A                 
1 56191U 23054P   26065.93537379  .00006277  00000+0  24567-3 0  9999
2 56191  97.2833 315.8739 0004565  56.8365 303.3311 15.26155962161425
HAWK-7B                 
1 56193U 23054R   26066.13199590  .00007490  00000+0  29256-3 0  9991
2 56193  97.2866 314.2909 0003815  66.5575 293.6064 15.26158576161456
HAWK-7C                 
1 56200U 23054Y   26066.13187900  .00007332  00000+0  28644-3 0  9997
2 56200  97.2841 315.0930 0003828  57.5471 302.6137 15.26159342161454
